{
  "norad_id": 67678,
  "name": "COSMOS 2604",
  "history": [
    {
      "epoch": "2026-04-30T11:10:38.864640Z",
      "apogee_km": 504.1484794019434,
      "perigee_km": 481.2732282252846,
      "latitude_deg": -4.484030634629093e-05,
      "longitude_deg": 161.33119124456363,
      "height_km": 489.11316601609576,
      "semi_major_axis_km": 6870.847853813613,
      "eccentricity": 0.00166466,
      "inclination_deg": 96.6243,
      "raan_deg": 187.4052,
      "arg_perigee_deg": 305.9897,
      "mean_anomaly_deg": 53.9798,
      "mean_motion_rev_day": 15.24359018
    },
    {
      "epoch": "2026-05-02T10:26:25.352160Z",
      "apogee_km": 503.9042268955018,
      "perigee_km": 481.2034643415791,
      "latitude_deg": 2.3221845063353868e-05,
      "longitude_deg": 172.18826394575262,
      "height_km": 490.31366673657783,
      "semi_major_axis_km": 6870.69084561854,
      "eccentricity": 0.001652,
      "inclination_deg": 96.6235,
      "raan_deg": 189.147,
      "arg_perigee_deg": 298.1999,
      "mean_anomaly_deg": 61.7572,
      "mean_motion_rev_day": 15.2441127
    },
    {
      "epoch": "2026-05-03T17:56:53.376000Z",
      "apogee_km": 503.81457661731747,
      "perigee_km": 481.10725051298505,
      "latitude_deg": 2.1890228343561894e-06,
      "longitude_deg": 59.43891814032181,
      "height_km": 491.16472493522684,
      "semi_major_axis_km": 6870.5979135651505,
      "eccentricity": 0.0016525,
      "inclination_deg": 96.6231,
      "raan_deg": 190.3084,
      "arg_perigee_deg": 292.9084,
      "mean_anomaly_deg": 67.0411,
      "mean_motion_rev_day": 15.24442199
    },
    {
      "epoch": "2026-05-04T17:34:43.012128Z",
      "apogee_km": 503.73558458064326,
      "perigee_km": 481.06144327757465,
      "latitude_deg": -3.186563169513874e-05,
      "longitude_deg": 64.88263321528268,
      "height_km": 491.8334812823692,
      "semi_major_axis_km": 6870.535513929109,
      "eccentricity": 0.0016501,
      "inclination_deg": 96.6229,
      "raan_deg": 191.1794,
      "arg_perigee_deg": 288.9857,
      "mean_anomaly_deg": 70.9594,
      "mean_motion_rev_day": 15.24462967
    },
    {
      "epoch": "2026-05-05T17:12:31.201920Z",
      "apogee_km": 503.62145469465395,
      "perigee_km": 481.00119063710827,
      "latitude_deg": -1.1300768593578173e-05,
      "longitude_deg": 70.33238453803455,
      "height_km": 492.4886573024262,
      "semi_major_axis_km": 6870.448322665881,
      "eccentricity": 0.0016462,
      "inclination_deg": 96.6228,
      "raan_deg": 192.0504,
      "arg_perigee_deg": 285.098,
      "mean_anomaly_deg": 74.8438,
      "mean_motion_rev_day": 15.24491987
    },
    {
      "epoch": "2026-05-06T19:59:20.421600Z",
      "apogee_km": 503.52655680759926,
      "perigee_km": 480.98891391771576,
      "latitude_deg": 1.627054213210269e-05,
      "longitude_deg": 28.514665652685654,
      "height_km": 493.3138790769857,
      "semi_major_axis_km": 6870.394735362657,
      "eccentricity": 0.0016402,
      "inclination_deg": 96.6227,
      "raan_deg": 193.0376,
      "arg_perigee_deg": 280.5705,
      "mean_anomaly_deg": 79.3687,
      "mean_motion_rev_day": 15.24509823
    },
    {
      "epoch": "2026-05-07T11:44:31.227648Z",
      "apogee_km": 503.51293042244924,
      "perigee_km": 480.9437802302027,
      "latitude_deg": 5.589573035276062e-05,
      "longitude_deg": 152.15328075814125,
      "height_km": 493.79060916411896,
      "semi_major_axis_km": 6870.365355326326,
      "eccentricity": 0.0016425,
      "inclination_deg": 96.6226,
      "raan_deg": 193.6182,
      "arg_perigee_deg": 277.9519,
      "mean_anomaly_deg": 81.9857,
      "mean_motion_rev_day": 15.24519602
    },
    {
      "epoch": "2026-05-08T09:47:45.799872Z",
      "apogee_km": 503.47358150270156,
      "perigee_km": 480.89907311383286,
      "latitude_deg": -2.5355442351586757e-05,
      "longitude_deg": -178.7502579374936,
      "height_km": 494.46179898455404,
      "semi_major_axis_km": 6870.323327308267,
      "eccentricity": 0.0016429,
      "inclination_deg": 96.6227,
      "raan_deg": 194.4311,
      "arg_perigee_deg": 274.3086,
      "mean_anomaly_deg": 85.6276,
      "mean_motion_rev_day": 15.24533591
    },
    {
      "epoch": "2026-05-09T17:18:05.081760Z",
      "apogee_km": 503.4030190771482,
      "perigee_km": 480.8314857562573,
      "latitude_deg": 5.024131405974426e-05,
      "longitude_deg": 68.53671004854033,
      "height_km": 495.4309859545728,
      "semi_major_axis_km": 6870.254252416702,
      "eccentricity": 0.0016427,
      "inclination_deg": 96.6227,
      "raan_deg": 195.5923,
      "arg_perigee_deg": 269.0352,
      "mean_anomaly_deg": 90.9006,
      "mean_motion_rev_day": 15.24556583
    },
    {
      "epoch": "2026-05-10T15:21:17.625312Z",
      "apogee_km": 503.39427409291693,
      "perigee_km": 480.76103892850733,
      "latitude_deg": -2.95041033261562e-06,
      "longitude_deg": 97.64174577537246,
      "height_km": 496.0964675913603,
      "semi_major_axis_km": 6870.214656510711,
      "eccentricity": 0.0016472,
      "inclination_deg": 96.623,
      "raan_deg": 196.4053,
      "arg_perigee_deg": 265.4642,
      "mean_anomaly_deg": 94.4716,
      "mean_motion_rev_day": 15.24569763
    },
    {
      "epoch": "2026-05-11T14:59:00.462624Z",
      "apogee_km": 503.3789664924798,
      "perigee_km": 480.7060001616037,
      "latitude_deg": -3.410915721428707e-05,
      "longitude_deg": 103.11396941607836,
      "height_km": 496.8312759876605,
      "semi_major_axis_km": 6870.179483327041,
      "eccentricity": 0.0016501,
      "inclination_deg": 96.623,
      "raan_deg": 197.2764,
      "arg_perigee_deg": 261.5561,
      "mean_anomaly_deg": 98.3808,
      "mean_motion_rev_day": 15.24581471
    },
    {
      "epoch": "2026-05-12T09:53:10.307040Z",
      "apogee_km": 503.3733452773931,
      "perigee_km": 480.65650092846045,
      "latitude_deg": 3.7633189851972255e-05,
      "longitude_deg": 179.49333517637075,
      "height_km": 497.41470025016724,
      "semi_major_axis_km": 6870.151923102926,
      "eccentricity": 0.0016533,
      "inclination_deg": 96.6232,
      "raan_deg": 197.9731,
      "arg_perigee_deg": 258.4439,
      "mean_anomaly_deg": 101.4945,
      "mean_motion_rev_day": 15.24590645
    },
    {
      "epoch": "2026-05-13T17:23:25.876320Z",
      "apogee_km": 503.36165160422115,
      "perigee_km": 480.57488644791647,
      "latitude_deg": -3.4205871879887835e-05,
      "longitude_deg": 66.79583560400307,
      "height_km": 498.3817895505542,
      "semi_major_axis_km": 6870.1052690260685,
      "eccentricity": 0.0016584,
      "inclination_deg": 96.6232,
      "raan_deg": 199.1343,
      "arg_perigee_deg": 253.223,
      "mean_anomaly_deg": 106.719,
      "mean_motion_rev_day": 15.24606175
    },
    {
      "epoch": "2026-05-14T05:59:31.773984Z",
      "apogee_km": 503.36719400863785,
      "perigee_km": 480.5299303862039,
      "latitude_deg": 6.768578253577068e-05,
      "longitude_deg": -122.28178042376473,
      "height_km": 498.7611827418334,
      "semi_major_axis_km": 6870.085562197421,
      "eccentricity": 0.00166208,
      "inclination_deg": 96.6233,
      "raan_deg": 199.5988,
      "arg_perigee_deg": 251.159,
      "mean_anomaly_deg": 108.7848,
      "mean_motion_rev_day": 15.24612735
    },
    {
      "epoch": "2026-05-15T04:02:41.691840Z",
      "apogee_km": 503.3790487441611,
      "perigee_km": 480.45450369936316,
      "latitude_deg": 2.94179778460375e-06,
      "longitude_deg": -93.16587179457649,
      "height_km": 499.41975243429965,
      "semi_major_axis_km": 6870.053776221762,
      "eccentricity": 0.00166844,
      "inclination_deg": 96.6231,
      "raan_deg": 200.4117,
      "arg_perigee_deg": 247.548,
      "mean_anomaly_deg": 112.3993,
      "mean_motion_rev_day": 15.24623316
    }
  ]
}